OBJECT_NAME,OBJECT_ID,EPOCH,MEAN_MOTION,ECCENTRICITY,INCLINATION,RA_OF_ASC_NODE,ARG_OF_PERICENTER,MEAN_ANOMALY,EPHEMERIS_TYPE,CLASSIFICATION_TYPE,NORAD_CAT_ID,ELEMENT_SET_NO,REV_AT_EPOCH,BSTAR,MEAN_MOTION_DOT,MEAN_MOTION_DDOT
SITRO-AIS 12 (SMIRENNIY),2023-091AQ,2026-06-02T07:16:56.334720,15.37826385,.00078679,97.5096,223.6955,118.9836,241.2198,0,U,57204,999,16248,.5920809E-3,.21982E-3,0
2023-091AS,2023-091AS,2026-06-02T06:12:48.739680,15.61023747,.00037254,97.5050,232.1904,112.4846,247.6806,0,U,57206,999,16306,.97636237E-3,.82605E-3,0
SITRO-AIS 11 (SHEFFER),2023-091AU,2026-06-02T06:08:24.922464,15.38234784,.0007781,97.5095,223.8841,119.2065,240.9959,0,U,57208,999,16249,.58660589E-3,.22068E-3,0
H2SAT (HEINRICH HERTZ),2023-093A,2026-06-02T05:05:56.644224,1.00272212,.00009762,0.0469,131.5034,317.5813,238.7653,0,U,57213,999,1076,0,.14E-6,0
SYRACUSE 4B,2023-093B,2026-06-02T03:21:15.709824,1.00272732,.00003094,0.0193,348.0114,115.2301,191.2368,0,U,57214,999,681,0,0,0
KUZGTU 1 (RS47S),2023-091AV,2026-06-02T06:00:27.431136,15.29491042,.00121029,97.5069,217.5818,144.2191,215.9862,0,U,57217,999,16209,.48439538E-3,.13811E-3,0
STARLINK-5525,2023-094A,2026-06-01T16:33:48.850272,15.27572782,.00012678,43.0002,276.2192,277.6411,82.4297,0,U,57218,999,15996,.28335946E-4,.518E-5,0
STARLINK-5520,2023-094B,2026-06-01T16:38:38.723136,15.27579962,.00017468,43.0022,279.6444,277.0708,82.9945,0,U,57219,999,15992,-.56682179E-4,-.1822E-4,0
STARLINK-5880,2023-094C,2026-06-01T08:52:49.875744,15.26743293,.00016602,43.0029,281.5172,273.1001,86.9660,0,U,57220,999,15987,.25223796E-4,.417E-5,0
STARLINK-5875,2023-094D,2026-06-02T08:00:04.999680,15.65575624,.00016359,42.9992,272.5182,266.4195,28.9554,0,U,57221,999,576,.10003513E-1,.1145239E-1,0
STARLINK-5870,2023-094E,2026-06-01T19:21:45.007488,15.27588264,.00017008,43.0026,275.3705,270.8182,89.2475,0,U,57222,999,16061,.92991145E-4,.2298E-4,0
STARLINK-5519,2023-094F,2026-06-01T10:05:22.250688,15.27575412,.00016989,43.0044,281.0450,283.3695,76.6967,0,U,57223,999,15988,.68681913E-4,.1628E-4,0
STARLINK-5983,2023-094G,2026-06-01T16:19:00.145920,15.27574507,.00017901,43.0024,276.1364,274.2308,85.8340,0,U,57224,999,15996,.69636429E-4,.1654E-4,0
STARLINK-6294,2023-094H,2026-06-01T19:05:18.271968,15.27612091,.00015775,43.0033,276.1409,281.2625,78.8050,0,U,57225,999,15997,-.24515669E-3,-.7009E-4,0
STARLINK-6350,2023-094J,2026-06-01T10:54:11.577024,15.27571296,.00015408,43.0042,277.8808,278.6750,81.3927,0,U,57226,999,15992,.6024472E-5,-.96E-6,0
STARLINK-5996,2023-094K,2026-06-01T16:27:32.841792,15.27576271,.00020444,43.0035,279.5847,273.8566,86.2052,0,U,57227,999,15992,.83051601E-4,.2023E-4,0
STARLINK-6230,2023-094L,2026-06-01T15:58:39.947232,15.27571136,.00016873,43.0046,276.0288,258.8214,101.2448,0,U,57228,999,15996,.15150327E-3,.3908E-4,0
STARLINK-6233,2023-094M,2026-06-01T15:42:12.197376,15.27575813,.00018728,43.0041,276.8022,261.6730,98.3909,0,U,57229,999,15995,.26011853E-4,.453E-5,0
STARLINK-6250,2023-094N,2026-06-01T09:29:16.754784,15.27593187,.00016626,43.0045,278.3000,277.1759,82.8904,0,U,57230,999,15991,.8860613E-4,.2178E-4,0
STARLINK-5840,2023-094P,2026-06-01T09:14:28.815936,15.27577286,.00012129,43.0018,278.2160,277.3530,82.7184,0,U,57231,999,15991,.25463732E-4,.439E-5,0
STARLINK-5872,2023-094Q,2026-06-01T20:06:10.118304,15.27576903,.00009834,43.0013,275.5843,248.7117,111.3630,0,U,57232,999,16064,.56369982E-4,.1289E-4,0
STARLINK-5866,2023-094R,2026-06-01T15:14:27.263328,15.27563017,.00017385,43.0018,276.6582,275.0959,84.9694,0,U,57233,999,15995,-.44025334E-4,-.1473E-4,0
STARLINK-6368,2023-094S,2026-06-01T09:54:58.423680,15.27575754,.00017003,43.0036,277.5655,273.8161,86.2496,0,U,57234,999,15992,.19766462E-4,.282E-5,0
STARLINK-6360,2023-094T,2026-06-01T15:08:54.018528,15.27574215,.00014822,43.0023,276.6281,266.0003,94.0679,0,U,57235,999,15995,.52236835E-4,.1175E-4,0
STARLINK-6315,2023-094U,2026-06-01T14:37:40.762848,15.27576507,.00011171,42.9983,266.0370,309.1417,50.9335,0,U,57236,999,16007,.24451463E-4,.411E-5,0
STARLINK-6365,2023-094V,2026-06-01T08:39:19.109376,15.27590918,.00013115,43.0012,278.0353,266.6620,93.4082,0,U,57237,999,15991,.75098375E-4,.1806E-4,0
STARLINK-6334,2023-094W,2026-06-01T14:58:01.650144,15.27573337,.00013966,43.0041,266.1261,269.3677,90.7015,0,U,57238,999,16007,.23336871E-4,.38E-5,0
STARLINK-6330,2023-094X,2026-06-01T10:00:31.531968,15.27574755,.00017926,43.0043,277.5951,269.8287,90.2360,0,U,57239,999,15992,.63704265E-4,.1491E-4,0
STARLINK-6351,2023-094Y,2026-06-01T09:03:22.803264,15.27656264,.00024766,43.0029,266.8636,267.5735,92.4833,0,U,57240,999,16004,-.41660257E-3,-.11736E-3,0
STARLINK-6349,2023-094Z,2026-06-01T14:43:13.456416,15.27577274,.00010468,42.9985,266.0563,277.6694,82.4039,0,U,57241,999,16007,.60130662E-4,.1393E-4,0
STARLINK-6306,2023-094AA,2026-06-01T18:00:47.653920,15.27573907,.00004686,42.9980,265.3614,194.1069,165.9770,0,U,57242,999,16009,.30968376E-4,.59E-5,0
STARLINK-6346,2023-094AB,2026-06-01T08:30:17.730432,15.27578487,.00010223,43.0014,267.5506,272.6639,87.4096,0,U,57243,999,16003,.23042391E-4,.372E-5,0
STARLINK-5610,2023-094AC,2026-06-01T07:19:59.104416,15.27574673,.00019265,43.0045,267.1880,277.2539,82.8094,0,U,57244,999,16003,.19294508E-4,.268E-5,0
STARLINK-5587,2023-094AD,2026-06-01T18:11:53.067840,15.27580113,.00011044,43.0036,265.4155,288.9303,71.1429,0,U,57245,999,16009,.47134434E-4,.1035E-4,0
STARLINK-5049,2023-094AE,2026-06-01T15:14:27.866400,15.27575323,.00016323,43.0043,265.3579,284.1599,75.9071,0,U,57246,999,16008,.71393258E-4,.1703E-4,0
STARLINK-5039,2023-094AF,2026-06-01T15:25:33.941280,15.27576131,.00017825,43.0038,265.4099,273.4148,86.6500,0,U,57247,999,16008,.41366504E-4,.876E-5,0
STARLINK-5514,2023-094AG,2026-06-02T05:38:31.726752,15.27577064,.0001677,43.0025,262.1130,254.0642,106.0025,0,U,57248,999,16017,.40476137E-4,.852E-5,0
STARLINK-5517,2023-094AH,2026-06-01T09:20:01.647744,15.27577211,.00021428,43.0036,266.8859,270.7151,89.3455,0,U,57249,999,16004,.63570136E-4,.1487E-4,0
STARLINK-5488,2023-094AJ,2026-06-01T14:22:52.066272,15.27576851,.00016892,43.0033,265.9458,269.3554,90.7104,0,U,57250,999,16007,.3230007E-4,.627E-5,0
STARLINK-5513,2023-094AK,2026-06-01T07:51:26.394912,15.27577577,.0001756,43.0037,267.3433,269.8994,90.1656,0,U,57251,999,16003,.19501833E-4,.274E-5,0
STARLINK-5511,2023-094AL,2026-06-01T15:23:43.158336,15.27576982,.00022267,43.0047,265.4038,285.9041,74.1565,0,U,57252,999,16008,.55381065E-4,.1262E-4,0
STARLINK-5516,2023-094AM,2026-06-01T08:00:41.619456,15.27576097,.00012807,43.0028,267.3881,268.2472,91.8233,0,U,57253,999,16003,.8870936E-5,-.18E-6,0
STARLINK-5490,2023-094AN,2026-06-01T09:18:11.581920,15.27574818,.00017984,43.0029,266.9349,266.0738,93.9908,0,U,57254,999,16004,.58019845E-4,.1334E-4,0
STARLINK-5481,2023-094AP,2026-06-02T05:36:40.378752,15.27580065,.00019232,43.0037,262.1046,278.6916,81.3718,0,U,57255,999,16017,.34362793E-4,.683E-5,0
STARLINK-5512,2023-094AQ,2026-06-01T08:15:29.652480,15.27578142,.00013708,43.0032,267.4781,269.1081,90.9613,0,U,57256,999,16003,.21740411E-4,.336E-5,0
STARLINK-5503,2023-094AR,2026-06-01T08:11:47.546592,15.27578431,.00015528,43.0008,267.4473,269.1395,90.9279,0,U,57257,999,16069,.14406502E-3,.3704E-4,0
STARLINK-5476,2023-094AS,2026-06-01T09:29:17.837376,15.27575129,.00013795,43.0014,266.9849,271.0993,88.9701,0,U,57258,999,16004,.43697309E-4,.94E-5,0
STARLINK-5026,2023-094AU,2026-05-31T17:51:26.160192,15.27576453,.00013877,43.0034,270.6970,266.7951,93.2742,0,U,57260,999,16058,.16058074E-4,.18E-5,0
STARLINK-5485,2023-094AV,2026-06-01T08:46:43.290912,15.27575402,.00016732,43.0016,278.0758,268.2578,91.8082,0,U,57261,999,15991,.79832612E-4,.1935E-4,0
STARLINK-5504,2023-094AW,2026-06-01T07:49:35.058144,15.27577051,.0001465,43.0024,267.3266,267.6635,92.4049,0,U,57262,999,16003,.73672892E-4,.1765E-4,0
STARLINK-5509,2023-094AX,2026-06-01T16:31:57.309600,15.27576778,.000131,43.0022,276.2014,264.9515,95.1187,0,U,57263,999,15996,.13508428E-4,.11E-5,0
STARLINK-5858,2023-094AY,2026-06-01T08:04:23.353824,15.27578032,.00013279,43.0017,267.4044,270.0186,90.0513,0,U,57264,999,16003,.4588396E-4,.1001E-4,0
HULIANWANG JISHU SHIYAN A,2023-095A,2026-06-02T05:49:41.079648,13.39541425,.0016223,86.5039,9.9492,229.0081,130.9659,0,U,57288,999,14175,.10889366E-3,.74E-6,0
HULIANWANG JISHU SHIYAN B,2023-095B,2026-06-02T07:25:24.568896,13.39550184,.00148499,86.5040,9.9352,226.2676,133.7238,0,U,57289,999,14176,.99980659E-4,.69E-6,0
STARLINK-30198,2023-096A,2026-06-01T06:28:24.121632,15.24295027,.0004727,42.9895,115.0665,145.9887,214.1266,0,U,57290,999,16035,.19056609E-2,.47553E-3,0
STARLINK-30239,2023-096B,2026-06-01T05:20:22.220160,15.27572156,.00016549,43.0037,111.3463,261.4296,98.6368,0,U,57291,999,16039,.38689133E-4,.802E-5,0
STARLINK-30235,2023-096E,2026-06-01T07:03:46.764000,15.27572915,.00010749,43.0027,111.0238,287.4167,72.6567,0,U,57294,999,16040,-.13053162E-4,-.621E-5,0
STARLINK-30236,2023-096L,2026-06-01T07:09:19.530144,15.27579974,.00012771,43.0015,111.0409,269.5560,90.5145,0,U,57300,999,16044,.14901771E-4,.148E-5,0
STARLINK-30201,2023-096M,2026-06-01T05:49:57.805824,15.27577688,.00036182,42.9995,111.4903,249.4421,110.6043,0,U,57301,999,15949,.75270049E-4,.1809E-4,0
STARLINK-30233,2023-096N,2026-06-01T05:40:43.689792,15.27576269,.00012135,43.0000,111.4243,261.6282,98.4432,0,U,57302,999,15949,.22174264E-3,.5844E-4,0
STARLINK-30184,2023-096W,2026-06-01T03:23:51.301536,15.27559752,.00011775,43.0048,83.1761,279.2179,80.8539,0,U,57310,999,15981,.25663375E-3,.6802E-4,0
STARLINK-6290,2023-099A,2026-06-01T22:19:46.125408,15.27572986,.00013193,43.0025,136.3405,284.7909,75.2797,0,U,57328,999,15987,.9711306E-5,.5E-7,0
STARLINK-6138,2023-099B,2026-06-01T08:49:21.907488,15.27578540,.00012287,43.0039,139.8539,264.3769,95.6943,0,U,57329,999,15887,.23488058E-4,.384E-5,0
STARLINK-6212,2023-099C,2026-06-01T22:36:24.904224,15.27578136,.00013515,43.0033,136.4236,261.3199,98.7500,0,U,57330,999,15896,.26172737E-4,.458E-5,0
